<?xml version="1.0" encoding="UTF-8"?>
<ndm xmlns:xsi="http://www.w3.org/2001/XMLSchema-instance" xsi:noNamespaceSchemaLocation="https://sanaregistry.org/r/ndmxml_unqualified/ndmxml-2.0.0-master-2.0.xsd">
<omm id="CCSDS_OMM_VERS" version="2.0">
<header><CREATION_DATE/><ORIGINATOR/></header><body><segment><metadata><OBJECT_NAME>KUIPER-00053</OBJECT_NAME><OBJECT_ID>2025-134P</OBJECT_ID><CENTER_NAME>EARTH</CENTER_NAME><REF_FRAME>TEME</REF_FRAME><TIME_SYSTEM>UTC</TIME_SYSTEM><MEAN_ELEMENT_THEORY>SGP4</MEAN_ELEMENT_THEORY></metadata><data><meanElements><EPOCH>2025-08-18T12:28:27.592320</EPOCH><MEAN_MOTION>15.37021665</MEAN_MOTION><ECCENTRICITY>.0001275</ECCENTRICITY><INCLINATION>51.8778</INCLINATION><RA_OF_ASC_NODE>60.2517</RA_OF_ASC_NODE><ARG_OF_PERICENTER>311.3621</ARG_OF_PERICENTER><MEAN_ANOMALY>48.7256</MEAN_ANOMALY></meanElements><tleParameters><EPHEMERIS_TYPE>0</EPHEMERIS_TYPE><CLASSIFICATION_TYPE>U</CLASSIFICATION_TYPE><NORAD_CAT_ID>64513</NORAD_CAT_ID><ELEMENT_SET_NO>999</ELEMENT_SET_NO><REV_AT_EPOCH>986</REV_AT_EPOCH><BSTAR>.93973E-3</BSTAR><MEAN_MOTION_DOT>.34336E-3</MEAN_MOTION_DOT><MEAN_MOTION_DDOT>0</MEAN_MOTION_DDOT></tleParameters></data></segment></body></omm>
<omm id="CCSDS_OMM_VERS" version="2.0">
<header><CREATION_DATE/><ORIGINATOR/></header><body><segment><metadata><OBJECT_NAME>KUIPER-00054</OBJECT_NAME><OBJECT_ID>2025-134Q</OBJECT_ID><CENTER_NAME>EARTH</CENTER_NAME><REF_FRAME>TEME</REF_FRAME><TIME_SYSTEM>UTC</TIME_SYSTEM><MEAN_ELEMENT_THEORY>SGP4</MEAN_ELEMENT_THEORY></metadata><data><meanElements><EPOCH>2025-08-18T12:38:40.087104</EPOCH><MEAN_MOTION>15.36939463</MEAN_MOTION><ECCENTRICITY>.0002771</ECCENTRICITY><INCLINATION>51.8749</INCLINATION><RA_OF_ASC_NODE>60.2936</RA_OF_ASC_NODE><ARG_OF_PERICENTER>299.4615</ARG_OF_PERICENTER><MEAN_ANOMALY>60.6094</MEAN_ANOMALY></meanElements><tleParameters><EPHEMERIS_TYPE>0</EPHEMERIS_TYPE><CLASSIFICATION_TYPE>U</CLASSIFICATION_TYPE><NORAD_CAT_ID>64514</NORAD_CAT_ID><ELEMENT_SET_NO>999</ELEMENT_SET_NO><REV_AT_EPOCH>986</REV_AT_EPOCH><BSTAR>.86501E-3</BSTAR><MEAN_MOTION_DOT>.3148E-3</MEAN_MOTION_DOT><MEAN_MOTION_DDOT>0</MEAN_MOTION_DDOT></tleParameters></data></segment></body></omm>
<omm id="CCSDS_OMM_VERS" version="2.0">
<header><CREATION_DATE/><ORIGINATOR/></header><body><segment><metadata><OBJECT_NAME>KUIPER-00055</OBJECT_NAME><OBJECT_ID>2025-134R</OBJECT_ID><CENTER_NAME>EARTH</CENTER_NAME><REF_FRAME>TEME</REF_FRAME><TIME_SYSTEM>UTC</TIME_SYSTEM><MEAN_ELEMENT_THEORY>SGP4</MEAN_ELEMENT_THEORY></metadata><data><meanElements><EPOCH>2025-08-18T05:50:14.725536</EPOCH><MEAN_MOTION>15.37563231</MEAN_MOTION><ECCENTRICITY>.0000758</ECCENTRICITY><INCLINATION>51.8777</INCLINATION><RA_OF_ASC_NODE>61.4034</RA_OF_ASC_NODE><ARG_OF_PERICENTER>264.7781</ARG_OF_PERICENTER><MEAN_ANOMALY>95.3120</MEAN_ANOMALY></meanElements><tleParameters><EPHEMERIS_TYPE>0</EPHEMERIS_TYPE><CLASSIFICATION_TYPE>U</CLASSIFICATION_TYPE><NORAD_CAT_ID>64515</NORAD_CAT_ID><ELEMENT_SET_NO>999</ELEMENT_SET_NO><REV_AT_EPOCH>982</REV_AT_EPOCH><BSTAR>.73245E-3</BSTAR><MEAN_MOTION_DOT>.27127E-3</MEAN_MOTION_DOT><MEAN_MOTION_DDOT>0</MEAN_MOTION_DDOT></tleParameters></data></segment></body></omm>
<omm id="CCSDS_OMM_VERS" version="2.0">
<header><CREATION_DATE/><ORIGINATOR/></header><body><segment><metadata><OBJECT_NAME>KUIPER-00056</OBJECT_NAME><OBJECT_ID>2025-134S</OBJECT_ID><CENTER_NAME>EARTH</CENTER_NAME><REF_FRAME>TEME</REF_FRAME><TIME_SYSTEM>UTC</TIME_SYSTEM><MEAN_ELEMENT_THEORY>SGP4</MEAN_ELEMENT_THEORY></metadata><data><meanElements><EPOCH>2025-08-18T12:50:46.103712</EPOCH><MEAN_MOTION>15.36676380</MEAN_MOTION><ECCENTRICITY>.0003471</ECCENTRICITY><INCLINATION>51.8720</INCLINATION><RA_OF_ASC_NODE>60.3404</RA_OF_ASC_NODE><ARG_OF_PERICENTER>302.1427</ARG_OF_PERICENTER><MEAN_ANOMALY>57.9222</MEAN_ANOMALY></meanElements><tleParameters><EPHEMERIS_TYPE>0</EPHEMERIS_TYPE><CLASSIFICATION_TYPE>U</CLASSIFICATION_TYPE><NORAD_CAT_ID>64516</NORAD_CAT_ID><ELEMENT_SET_NO>999</ELEMENT_SET_NO><REV_AT_EPOCH>986</REV_AT_EPOCH><BSTAR>.67962E-3</BSTAR><MEAN_MOTION_DOT>.24417E-3</MEAN_MOTION_DOT><MEAN_MOTION_DDOT>0</MEAN_MOTION_DDOT></tleParameters></data></segment></body></omm>
<omm id="CCSDS_OMM_VERS" version="2.0">
<header><CREATION_DATE/><ORIGINATOR/></header><body><segment><metadata><OBJECT_NAME>KUIPER-00057</OBJECT_NAME><OBJECT_ID>2025-134T</OBJECT_ID><CENTER_NAME>EARTH</CENTER_NAME><REF_FRAME>TEME</REF_FRAME><TIME_SYSTEM>UTC</TIME_SYSTEM><MEAN_ELEMENT_THEORY>SGP4</MEAN_ELEMENT_THEORY></metadata><data><meanElements><EPOCH>2025-08-18T12:14:57.223392</EPOCH><MEAN_MOTION>15.34410822</MEAN_MOTION><ECCENTRICITY>.0007355</ECCENTRICITY><INCLINATION>51.8705</INCLINATION><RA_OF_ASC_NODE>60.8959</RA_OF_ASC_NODE><ARG_OF_PERICENTER>314.8815</ARG_OF_PERICENTER><MEAN_ANOMALY>45.1572</MEAN_ANOMALY></meanElements><tleParameters><EPHEMERIS_TYPE>0</EPHEMERIS_TYPE><CLASSIFICATION_TYPE>U</CLASSIFICATION_TYPE><NORAD_CAT_ID>64517</NORAD_CAT_ID><ELEMENT_SET_NO>999</ELEMENT_SET_NO><REV_AT_EPOCH>985</REV_AT_EPOCH><BSTAR>.55318E-3</BSTAR><MEAN_MOTION_DOT>.18394E-3</MEAN_MOTION_DOT><MEAN_MOTION_DDOT>0</MEAN_MOTION_DDOT></tleParameters></data></segment></body></omm>
<omm id="CCSDS_OMM_VERS" version="2.0">
<header><CREATION_DATE/><ORIGINATOR/></header><body><segment><metadata><OBJECT_NAME>KUIPER-00058</OBJECT_NAME><OBJECT_ID>2025-134U</OBJECT_ID><CENTER_NAME>EARTH</CENTER_NAME><REF_FRAME>TEME</REF_FRAME><TIME_SYSTEM>UTC</TIME_SYSTEM><MEAN_ELEMENT_THEORY>SGP4</MEAN_ELEMENT_THEORY></metadata><data><meanElements><EPOCH>2025-08-18T13:08:12.183936</EPOCH><MEAN_MOTION>15.36288056</MEAN_MOTION><ECCENTRICITY>.0005643</ECCENTRICITY><INCLINATION>51.8696</INCLINATION><RA_OF_ASC_NODE>60.4108</RA_OF_ASC_NODE><ARG_OF_PERICENTER>307.7852</ARG_OF_PERICENTER><MEAN_ANOMALY>52.2623</MEAN_ANOMALY></meanElements><tleParameters><EPHEMERIS_TYPE>0</EPHEMERIS_TYPE><CLASSIFICATION_TYPE>U</CLASSIFICATION_TYPE><NORAD_CAT_ID>64518</NORAD_CAT_ID><ELEMENT_SET_NO>999</ELEMENT_SET_NO><REV_AT_EPOCH>986</REV_AT_EPOCH><BSTAR>.76469E-3</BSTAR><MEAN_MOTION_DOT>.27194E-3</MEAN_MOTION_DOT><MEAN_MOTION_DDOT>0</MEAN_MOTION_DDOT></tleParameters></data></segment></body></omm>
<omm id="CCSDS_OMM_VERS" version="2.0">
<header><CREATION_DATE/><ORIGINATOR/></header><body><segment><metadata><OBJECT_NAME>KUIPER-00059</OBJECT_NAME><OBJECT_ID>2025-134V</OBJECT_ID><CENTER_NAME>EARTH</CENTER_NAME><REF_FRAME>TEME</REF_FRAME><TIME_SYSTEM>UTC</TIME_SYSTEM><MEAN_ELEMENT_THEORY>SGP4</MEAN_ELEMENT_THEORY></metadata><data><meanElements><EPOCH>2025-08-17T20:33:07.982496</EPOCH><MEAN_MOTION>15.37429510</MEAN_MOTION><ECCENTRICITY>.0001435</ECCENTRICITY><INCLINATION>51.8787</INCLINATION><RA_OF_ASC_NODE>63.3056</RA_OF_ASC_NODE><ARG_OF_PERICENTER>265.1309</ARG_OF_PERICENTER><MEAN_ANOMALY>94.9514</MEAN_ANOMALY></meanElements><tleParameters><EPHEMERIS_TYPE>0</EPHEMERIS_TYPE><CLASSIFICATION_TYPE>U</CLASSIFICATION_TYPE><NORAD_CAT_ID>64519</NORAD_CAT_ID><ELEMENT_SET_NO>999</ELEMENT_SET_NO><REV_AT_EPOCH>976</REV_AT_EPOCH><BSTAR>.47534E-3</BSTAR><MEAN_MOTION_DOT>.17367E-3</MEAN_MOTION_DOT><MEAN_MOTION_DDOT>0</MEAN_MOTION_DDOT></tleParameters></data></segment></body></omm>
<omm id="CCSDS_OMM_VERS" version="2.0">
<header><CREATION_DATE/><ORIGINATOR/></header><body><segment><metadata><OBJECT_NAME>KUIPER-00060</OBJECT_NAME><OBJECT_ID>2025-134W</OBJECT_ID><CENTER_NAME>EARTH</CENTER_NAME><REF_FRAME>TEME</REF_FRAME><TIME_SYSTEM>UTC</TIME_SYSTEM><MEAN_ELEMENT_THEORY>SGP4</MEAN_ELEMENT_THEORY></metadata><data><meanElements><EPOCH>2025-08-18T13:52:56.285472</EPOCH><MEAN_MOTION>15.37347611</MEAN_MOTION><ECCENTRICITY>.0002131</ECCENTRICITY><INCLINATION>51.8783</INCLINATION><RA_OF_ASC_NODE>59.8975</RA_OF_ASC_NODE><ARG_OF_PERICENTER>266.0546</ARG_OF_PERICENTER><MEAN_ANOMALY>94.0197</MEAN_ANOMALY></meanElements><tleParameters><EPHEMERIS_TYPE>0</EPHEMERIS_TYPE><CLASSIFICATION_TYPE>U</CLASSIFICATION_TYPE><NORAD_CAT_ID>64520</NORAD_CAT_ID><ELEMENT_SET_NO>999</ELEMENT_SET_NO><REV_AT_EPOCH>986</REV_AT_EPOCH><BSTAR>.40737E-3</BSTAR><MEAN_MOTION_DOT>.14783E-3</MEAN_MOTION_DOT><MEAN_MOTION_DDOT>0</MEAN_MOTION_DDOT></tleParameters></data></segment></body></omm>

</ndm>
